IRIDIUM 150             
1 43257U 18030J   24176.69513263 -.00000021  00000+0 -14402-4 0  9997
2 43257  86.3978 232.3797 0002494  95.6774 264.4706 14.34217544326627
IRIDIUM 143             
1 43258U 18030K   24176.60633720 -.00000013  00000+0 -11765-4 0  9990
2 43258  86.3982 232.4809 0002577  93.5902 266.5589 14.34217354326520
IRIDIUM 161             
1 43478U 18047C   24176.60300000  .00000418  00000+0  11833-3 0  9996
2 43478  86.4491  30.4445 0002326  85.5812 274.5654 14.43282000320914
IRIDIUM 152             
1 43479U 18047D   24176.64882242 -.00000013  00000+0 -11754-4 0  9990
2 43479  86.3963  30.2846 0002071  88.0412 272.1021 14.34217424318931
IRIDIUM 147             
1 43480U 18047E   24176.65516418  .00000039  00000+0  68656-5 0  9992
2 43480  86.3967  30.2746 0002037  87.7616 272.3813 14.34217967318922
IRIDIUM 110             
1 43481U 18047F   24176.66150659  .00000040  00000+0  73810-5 0  9995
2 43481  86.3969  30.3449 0001767  89.0074 271.1324 14.34217852318914
IRIDIUM 162             
1 43482U 18047G   24176.59670578  .00000417  00000+0  11803-3 0  9995
2 43482  86.4489  30.3471 0002239  89.7923 270.3535 14.43280238320908
IRIDIUM 160             
1 43569U 18061A   24176.53757428  .00000014  00000+0 -22284-5 0  9992
2 43569  86.3975 358.7779 0001869  79.6080 280.5326 14.34217535309796
